HELIOS 2A               
1 28492U 04049A   23158.47327197  .00002054  00000+0  19438-3 0  9999
2 28492  98.2818 124.3755 0013917   3.0176 357.1125 14.94819595988114
SPIRALE A               
1 33751U 09008C   23157.57397674  .00000325  00000+0  76153-3 0  9996
2 33751   2.0339 280.4515 5488233 195.7914 136.4981  4.59024717211085
SPIRALE B               
1 33752U 09008D   23157.02319398  .00018338  00000+0  24065-2 0  9991
2 33752   2.0613 292.5104 6847177 164.4555 237.6595  2.86031546135165
SAPPHIRE                
1 39088U 13009C   23158.48200019  .00000150  00000+0  68272-4 0  9998
2 39088  98.4151 350.1460 0010296 304.7558  55.2658 14.34459180538036
